RAISE-4                 
1 67073U 25297B   25357.85281348  .00004508  00000+0  30298-3 0  9990
2 67073  97.4855 145.1024 0011519 279.1752  80.8172 15.07214710  1465
ELECTRON KICK STAGE R/B 
1 67074U 25297C   25357.93448204  .00333191  31943-4  17256-2 0  9992
2 67074  97.4821 145.9309 0192835 228.8590 129.5889 15.58899365  1529
STARLINK-36230          
1 67075U 25298A   25357.91668981 -.01695758  00000+0 -79989-2 0  9997
2 67075  69.9967 218.2345 0003846 269.8450 346.6091 15.85731984  2779
STARLINK-36240          
1 67076U 25298B   25357.91668981 -.01696730  00000+0 -80041-2 0  9990
2 67076  69.9967 218.2321 0003834 269.6611 348.7319 15.85732192  2776
STARLINK-36243          
1 67077U 25298C   25357.91668981 -.01700472  00000+0 -80277-2 0  9991
2 67077  69.9963 218.2293 0003869 270.8061 349.8703 15.85723555  2774
STARLINK-36236          
1 67078U 25298D   25357.91668981 -.01697997  00000+0 -80115-2 0  9990
2 67078  69.9967 218.2272 0003861 270.2778 352.1779 15.85730599  2773
STARLINK-36159          
1 67079U 25298E   25357.91668981 -.01692293  00000+0 -79890-2 0  9993
2 67079  69.9967 218.2247 0003758 269.8451 354.9212 15.85710486  2778
STARLINK-36158          
1 67080U 25298F   25357.91668981 -.01690450  00000+0 -79819-2 0  9999
2 67080  69.9965 218.2219 0003831 273.4319 353.5044 15.85701594  2715
STARLINK-35864          
1 67081U 25298G   25357.91668981 -.01700064  00000+0 -80325-2 0  9997
2 67081  69.9967 218.2196 0003807 272.0304 356.8746 15.85706655  2778
STARLINK-36035          
1 67082U 25298H   25357.91668981 -.01699018  00000+0 -80302-2 0  9999
2 67082  69.9966 218.2173 0003781 272.8506 358.1475 15.85698492  2779
STARLINK-36170          
1 67083U 25298J   25357.91668981 -.01697794  00000+0 -80239-2 0  9998
2 67083  69.9965 218.2146 0003863 270.6577   2.4680 15.85695966  2774
STARLINK-36166          
1 67084U 25298K   25357.91668981 -.01700241  00000+0 -80398-2 0  9997
2 67084  69.9964 218.2120 0003818 272.8473   2.2996 15.85690347  2715
