CCSDS_OMM_VERS = 2.0
CREATION_DATE  = 
ORIGINATOR     = 

OBJECT_NAME    = RAISE-4
OBJECT_ID      = 2025-297B
CENTER_NAME    = EARTH
REF_FRAME      = TEME
TIME_SYSTEM    = UTC
MEAN_ELEMENT_THEORY = SGP/SGP4

EPOCH          = 2025-12-23T20:28:03.084672
MEAN_MOTION    = 15.07214710
ECCENTRICITY   = .00115193
INCLINATION    = 97.4855
RA_OF_ASC_NODE = 145.1024
ARG_OF_PERICENTER = 279.1752
MEAN_ANOMALY   = 80.8172

EPHEMERIS_TYPE = 0
CLASSIFICATION_TYPE = U
NORAD_CAT_ID   = 67073
ELEMENT_SET_NO = 999
REV_AT_EPOCH   = 146
BSTAR          = .30298493E-3
MEAN_MOTION_DOT = .4508E-4
MEAN_MOTION_DDOT = 0

CCSDS_OMM_VERS = 2.0
CREATION_DATE  = 
ORIGINATOR     = 

OBJECT_NAME    = ELECTRON KICK STAGE R/B
OBJECT_ID      = 2025-297C
CENTER_NAME    = EARTH
REF_FRAME      = TEME
TIME_SYSTEM    = UTC
MEAN_ELEMENT_THEORY = SGP/SGP4

EPOCH          = 2025-12-23T22:25:39.248256
MEAN_MOTION    = 15.58899365
ECCENTRICITY   = .01928355
INCLINATION    = 97.4821
RA_OF_ASC_NODE = 145.9309
ARG_OF_PERICENTER = 228.8590
MEAN_ANOMALY   = 129.5889

EPHEMERIS_TYPE = 0
CLASSIFICATION_TYPE = U
NORAD_CAT_ID   = 67074
ELEMENT_SET_NO = 999
REV_AT_EPOCH   = 152
BSTAR          = .17255525E-2
MEAN_MOTION_DOT = .333191E-2
MEAN_MOTION_DDOT = .31943492E-4

CCSDS_OMM_VERS = 2.0
CREATION_DATE  = 
ORIGINATOR     = 

OBJECT_NAME    = STARLINK-36230
OBJECT_ID      = 2025-298A
CENTER_NAME    = EARTH
REF_FRAME      = TEME
TIME_SYSTEM    = UTC
MEAN_ELEMENT_THEORY = SGP/SGP4

EPOCH          = 2025-12-23T22:00:01.999584
MEAN_MOTION    = 15.85731984
ECCENTRICITY   = .00038463
INCLINATION    = 69.9967
RA_OF_ASC_NODE = 218.2345
ARG_OF_PERICENTER = 269.8450
MEAN_ANOMALY   = 346.6091

EPHEMERIS_TYPE = 0
CLASSIFICATION_TYPE = U
NORAD_CAT_ID   = 67075
ELEMENT_SET_NO = 999
REV_AT_EPOCH   = 277
BSTAR          = -.79988551E-2
MEAN_MOTION_DOT = -.1695758E-1
MEAN_MOTION_DDOT = 0

CCSDS_OMM_VERS = 2.0
CREATION_DATE  = 
ORIGINATOR     = 

OBJECT_NAME    = STARLINK-36240
OBJECT_ID      = 2025-298B
CENTER_NAME    = EARTH
REF_FRAME      = TEME
TIME_SYSTEM    = UTC
MEAN_ELEMENT_THEORY = SGP/SGP4

EPOCH          = 2025-12-23T22:00:01.999584
MEAN_MOTION    = 15.85732192
ECCENTRICITY   = .00038347
INCLINATION    = 69.9967
RA_OF_ASC_NODE = 218.2321
ARG_OF_PERICENTER = 269.6611
MEAN_ANOMALY   = 348.7319

EPHEMERIS_TYPE = 0
CLASSIFICATION_TYPE = U
NORAD_CAT_ID   = 67076
ELEMENT_SET_NO = 999
REV_AT_EPOCH   = 277
BSTAR          = -.80041417E-2
MEAN_MOTION_DOT = -.169673E-1
MEAN_MOTION_DDOT = 0

CCSDS_OMM_VERS = 2.0
CREATION_DATE  = 
ORIGINATOR     = 

OBJECT_NAME    = STARLINK-36243
OBJECT_ID      = 2025-298C
CENTER_NAME    = EARTH
REF_FRAME      = TEME
TIME_SYSTEM    = UTC
MEAN_ELEMENT_THEORY = SGP/SGP4

EPOCH          = 2025-12-23T22:00:01.999584
MEAN_MOTION    = 15.85723555
ECCENTRICITY   = .00038696
INCLINATION    = 69.9963
RA_OF_ASC_NODE = 218.2293
ARG_OF_PERICENTER = 270.8061
MEAN_ANOMALY   = 349.8703

EPHEMERIS_TYPE = 0
CLASSIFICATION_TYPE = U
NORAD_CAT_ID   = 67077
ELEMENT_SET_NO = 999
REV_AT_EPOCH   = 277
BSTAR          = -.80276543E-2
MEAN_MOTION_DOT = -.1700472E-1
MEAN_MOTION_DDOT = 0

CCSDS_OMM_VERS = 2.0
CREATION_DATE  = 
ORIGINATOR     = 

OBJECT_NAME    = STARLINK-36236
OBJECT_ID      = 2025-298D
CENTER_NAME    = EARTH
REF_FRAME      = TEME
TIME_SYSTEM    = UTC
MEAN_ELEMENT_THEORY = SGP/SGP4

EPOCH          = 2025-12-23T22:00:01.999584
MEAN_MOTION    = 15.85730599
ECCENTRICITY   = .00038612
INCLINATION    = 69.9967
RA_OF_ASC_NODE = 218.2272
ARG_OF_PERICENTER = 270.2778
MEAN_ANOMALY   = 352.1779

EPHEMERIS_TYPE = 0
CLASSIFICATION_TYPE = U
NORAD_CAT_ID   = 67078
ELEMENT_SET_NO = 999
REV_AT_EPOCH   = 277
BSTAR          = -.80114809E-2
MEAN_MOTION_DOT = -.1697997E-1
MEAN_MOTION_DDOT = 0

CCSDS_OMM_VERS = 2.0
CREATION_DATE  = 
ORIGINATOR     = 

OBJECT_NAME    = STARLINK-36159
OBJECT_ID      = 2025-298E
CENTER_NAME    = EARTH
REF_FRAME      = TEME
TIME_SYSTEM    = UTC
MEAN_ELEMENT_THEORY = SGP/SGP4

EPOCH          = 2025-12-23T22:00:01.999584
MEAN_MOTION    = 15.85710486
ECCENTRICITY   = .00037582
INCLINATION    = 69.9967
RA_OF_ASC_NODE = 218.2247
ARG_OF_PERICENTER = 269.8451
MEAN_ANOMALY   = 354.9212

EPHEMERIS_TYPE = 0
CLASSIFICATION_TYPE = U
NORAD_CAT_ID   = 67079
ELEMENT_SET_NO = 999
REV_AT_EPOCH   = 277
BSTAR          = -.79890048E-2
MEAN_MOTION_DOT = -.1692293E-1
MEAN_MOTION_DDOT = 0

CCSDS_OMM_VERS = 2.0
CREATION_DATE  = 
ORIGINATOR     = 

OBJECT_NAME    = STARLINK-36158
OBJECT_ID      = 2025-298F
CENTER_NAME    = EARTH
REF_FRAME      = TEME
TIME_SYSTEM    = UTC
MEAN_ELEMENT_THEORY = SGP/SGP4

EPOCH          = 2025-12-23T22:00:01.999584
MEAN_MOTION    = 15.85701594
ECCENTRICITY   = .00038318
INCLINATION    = 69.9965
RA_OF_ASC_NODE = 218.2219
ARG_OF_PERICENTER = 273.4319
MEAN_ANOMALY   = 353.5044

EPHEMERIS_TYPE = 0
CLASSIFICATION_TYPE = U
NORAD_CAT_ID   = 67080
ELEMENT_SET_NO = 999
REV_AT_EPOCH   = 271
BSTAR          = -.79819469E-2
MEAN_MOTION_DOT = -.169045E-1
MEAN_MOTION_DDOT = 0

CCSDS_OMM_VERS = 2.0
CREATION_DATE  = 
ORIGINATOR     = 

OBJECT_NAME    = STARLINK-35864
OBJECT_ID      = 2025-298G
CENTER_NAME    = EARTH
REF_FRAME      = TEME
TIME_SYSTEM    = UTC
MEAN_ELEMENT_THEORY = SGP/SGP4

EPOCH          = 2025-12-23T22:00:01.999584
MEAN_MOTION    = 15.85706655
ECCENTRICITY   = .00038076
INCLINATION    = 69.9967
RA_OF_ASC_NODE = 218.2196
ARG_OF_PERICENTER = 272.0304
MEAN_ANOMALY   = 356.8746

EPHEMERIS_TYPE = 0
CLASSIFICATION_TYPE = U
NORAD_CAT_ID   = 67081
ELEMENT_SET_NO = 999
REV_AT_EPOCH   = 277
BSTAR          = -.80325011E-2
MEAN_MOTION_DOT = -.1700064E-1
MEAN_MOTION_DDOT = 0

CCSDS_OMM_VERS = 2.0
CREATION_DATE  = 
ORIGINATOR     = 

OBJECT_NAME    = STARLINK-36035
OBJECT_ID      = 2025-298H
CENTER_NAME    = EARTH
REF_FRAME      = TEME
TIME_SYSTEM    = UTC
MEAN_ELEMENT_THEORY = SGP/SGP4

EPOCH          = 2025-12-23T22:00:01.999584
MEAN_MOTION    = 15.85698492
ECCENTRICITY   = .00037813
INCLINATION    = 69.9966
RA_OF_ASC_NODE = 218.2173
ARG_OF_PERICENTER = 272.8506
MEAN_ANOMALY   = 358.1475

EPHEMERIS_TYPE = 0
CLASSIFICATION_TYPE = U
NORAD_CAT_ID   = 67082
ELEMENT_SET_NO = 999
REV_AT_EPOCH   = 277
BSTAR          = -.80301772E-2
MEAN_MOTION_DOT = -.1699018E-1
MEAN_MOTION_DDOT = 0

CCSDS_OMM_VERS = 2.0
CREATION_DATE  = 
ORIGINATOR     = 

OBJECT_NAME    = STARLINK-36170
OBJECT_ID      = 2025-298J
CENTER_NAME    = EARTH
REF_FRAME      = TEME
TIME_SYSTEM    = UTC
MEAN_ELEMENT_THEORY = SGP/SGP4

EPOCH          = 2025-12-23T22:00:01.999584
MEAN_MOTION    = 15.85695966
ECCENTRICITY   = .00038639
INCLINATION    = 69.9965
RA_OF_ASC_NODE = 218.2146
ARG_OF_PERICENTER = 270.6577
MEAN_ANOMALY   = 2.4680

EPHEMERIS_TYPE = 0
CLASSIFICATION_TYPE = U
NORAD_CAT_ID   = 67083
ELEMENT_SET_NO = 999
REV_AT_EPOCH   = 277
BSTAR          = -.80239274E-2
MEAN_MOTION_DOT = -.1697794E-1
MEAN_MOTION_DDOT = 0

CCSDS_OMM_VERS = 2.0
CREATION_DATE  = 
ORIGINATOR     = 

OBJECT_NAME    = STARLINK-36166
OBJECT_ID      = 2025-298K
CENTER_NAME    = EARTH
REF_FRAME      = TEME
TIME_SYSTEM    = UTC
MEAN_ELEMENT_THEORY = SGP/SGP4

EPOCH          = 2025-12-23T22:00:01.999584
MEAN_MOTION    = 15.85690347
ECCENTRICITY   = .00038187
INCLINATION    = 69.9964
RA_OF_ASC_NODE = 218.2120
ARG_OF_PERICENTER = 272.8473
MEAN_ANOMALY   = 2.2996

EPHEMERIS_TYPE = 0
CLASSIFICATION_TYPE = U
NORAD_CAT_ID   = 67084
ELEMENT_SET_NO = 999
REV_AT_EPOCH   = 271
BSTAR          = -.80397948E-2
MEAN_MOTION_DOT = -.1700241E-1
MEAN_MOTION_DDOT = 0

